STARLINK-35699          
1 66557U 25268A   25334.50004630 -.01357517  00000+0 -67326-2 0  9993
2 66557  42.9967 194.1688 0001749 263.5234 345.0711 15.83905019  2702
STARLINK-35695          
1 66558U 25268B   25334.50004630 -.01372613  00000+0 -68095-2 0  9992
2 66558  42.9966 194.1640 0001740 266.0470 344.4715 15.83932676  2707
STARLINK-35419          
1 66559U 25268C   25334.50004630 -.01378884  00000+0 -68400-2 0  9999
2 66559  42.9966 194.1587 0001803 262.1838 350.4521 15.83947471  2704
STARLINK-35411          
1 66560U 25268D   25334.50004630 -.01384184  00000+0 -68630-2 0  9996
2 66560  42.9968 194.1537 0001750 264.4392 350.1747 15.83969871  2709
STARLINK-35305          
1 66561U 25268E   25334.50004630 -.01421781  00000+0 -69080-2 0  9992
2 66561  42.9967 194.1435 0001739 264.4579 354.2322 15.84006764  2652
STARLINK-35579          
1 66562U 25268F   25334.50004630 -.01418620  00000+0 -68979-2 0  9997
2 66562  42.9966 194.1482 0001746 263.3933 353.3435 15.83984912  2704
STARLINK-35437          
1 66563U 25268G   25334.50004630 -.01429901  00000+0 -69467-2 0  9995
2 66563  42.9965 194.1378 0001804 261.8811 358.9253 15.84022961  2708
STARLINK-35358          
1 66564U 25268H   25334.50004630 -.01435189  00000+0 -69667-2 0  9993
2 66564  42.9965 194.1331 0001811 263.2027 359.5260 15.84049166  2656
STARLINK-35893          
1 66565U 25268J   25334.50004630 -.01441497  00000+0 -69932-2 0  9998
2 66565  42.9966 194.1282 0001812 261.9771   2.7217 15.84072987  2707
STARLINK-35871          
1 66566U 25268K   25334.50004630 -.01451760  00000+0 -70472-2 0  9994
2 66566  42.9967 194.1223 0001757 262.2761   4.7534 15.84079745  2708
STARLINK-35825          
1 66567U 25268L   25334.50004630 -.01461246  00000+0 -70941-2 0  9996
2 66567  42.9969 194.1169 0001784 262.2958   6.9164 15.84094322  2709
STARLINK-35803          
1 66568U 25268M   25334.16671295 -.01478451  00000+0 -68135-2 0  9994
2 66568  42.9969 196.1640 0001674 276.1831 251.3744 15.85197324  2659
